0 THORAD AGENA D DEB
1 04735U 70025CJ  13282.69911201  .00003822  00000-0  13261-2 0  6737
2 04735 099.6810 276.3006 0065102 049.1113 006.8296 14.35063947224204
0 THORAD AGENA D DEB
1 04735U 70025CJ  13286.94703814  .00004204  00000-0  14562-2 0  6750
2 04735 099.6805 281.0602 0064963 037.0657 352.7075 14.35093653224818
0 THORAD AGENA D DEB
1 04735U 70025CJ  13288.97361178  .00006200  00000-0  21374-2 0  6766
2 04735 099.6798 283.3311 0064825 031.3329 022.6834 14.35114586225109
0 THORAD AGENA D DEB
1 04735U 70025CJ  13291.49784148  .00005178  00000-0  17875-2 0  6778
2 04735 099.6801 286.1592 0064695 024.1732 103.9440 14.35139061225469
0 THORAD AGENA D DEB
1 04735U 70025CJ  13293.71461522  .00005572  00000-0  19214-2 0  6781
2 04735 099.6806 288.6428 0064557 017.8497 036.9748 14.35158976225780
0 THORAD AGENA D DEB
1 04735U 70025CJ  13295.94664564  .00006481  00000-0  22310-2 0  6791
2 04735 099.6814 291.1437 0064427 011.5140 048.9617 14.35181620226107
